ARKTIKA-M 2             
1 58584U 23198A   25172.35710538  .00000243  00000+0  00000+0 0  9999
2 58584  63.2305 193.9052 6871412 268.8091  18.5070  2.00602436 11087
TIANMU-1 11             
1 58645U 23205A   25172.79301587  .00003750  00000+0  16611-3 0  9999
2 58645  97.3716 195.6313 0009780 183.4922 176.6248 15.22206384 82618
TIANMU-1 12             
1 58646U 23205B   25172.81016589  .00004065  00000+0  18016-3 0  9999
2 58646  97.3703 195.5061 0008282 169.1954 190.9461 15.22147211 82604
TIANMU-1 13             
1 58647U 23205C   25172.84311292  .00003750  00000+0  16655-3 0  9999
2 58647  97.3732 195.6750 0008993 150.3153 209.8595 15.22121664 82607
TIANMU-1 14             
1 58648U 23205D   25172.82622595  .00003920  00000+0  17382-3 0  9996
2 58648  97.3661 195.1684 0009873 156.0493 204.1204 15.22141516 82601
TIANMU-1 19             
1 58660U 23208A   25172.81897607  .00004978  00000+0  20662-3 0  9999
2 58660  97.4288 284.8866 0006859 140.5481 219.6257 15.24287574 82308
TIANMU-1 20             
1 58661U 23208B   25172.81094354  .00005054  00000+0  20227-3 0  9991
2 58661  97.4223 285.1557 0009058 152.3020 207.8702 15.25488792 82358
TIANMU-1 21             
1 58662U 23208C   25172.79564491  .00006079  00000+0  22895-3 0  9994
2 58662  97.4264 286.3676 0008697 149.8412 210.3329 15.27436368 82418
TIANMU-1 22             
1 58663U 23208D   25172.80577902  .00004744  00000+0  19725-3 0  9993
2 58663  97.4282 284.9751 0004916 156.4881 203.6582 15.24263407 82315
TIANMU-1 15             
1 58700U 24004A   25172.82468226  .00003858  00000+0  17182-3 0  9990
2 58700  97.4654 355.2708 0007036 168.2329 191.9073 15.22034193 80877
TIANMU-1 16             
1 58701U 24004B   25172.80888127  .00003945  00000+0  17542-3 0  9992
2 58701  97.4588 354.7917 0007226 173.9286 186.2039 15.22073682 80871
TIANMU-1 17             
1 58702U 24004C   25172.79407849  .00004088  00000+0  18083-3 0  9999
2 58702  97.4626 355.1035 0005872 171.8887 188.2445 15.22234774 80863
TIANMU-1 18             
1 58703U 24004D   25172.84272906  .00003989  00000+0  17703-3 0  9997
2 58703  97.4643 355.3071 0006016 160.4756 199.6711 15.22140173 80877
INSAT-3DS               
1 58990U 24033A   25172.81294978 -.00000146  00000+0  00000+0 0  9998
2 58990   0.0511  98.9779 0001008 353.7817 192.2211  1.00271006  5204
