[
  {
    "OBJECT_NAME": "ARKTIKA-M 2",
    "OBJECT_ID": "2023-198A",
    "EPOCH": "2025-06-21T08:34:13.904832",
    "MEAN_MOTION": 2.00602436,
    "ECCENTRICITY": 0.6871412,
    "INCLINATION": 63.2305,
    "RA_OF_ASC_NODE": 193.9052,
    "ARG_OF_PERICENTER": 268.8091,
    "MEAN_ANOMALY": 18.507,
    "EPHEMERIS_TYPE": 0,
    "CLASSIFICATION_TYPE": "U",
    "NORAD_CAT_ID": 58584,
    "ELEMENT_SET_NO": 999,
    "REV_AT_EPOCH": 1108,
    "BSTAR": 0,
    "MEAN_MOTION_DOT": 2.43e-06,
    "MEAN_MOTION_DDOT": 0
  },
  {
    "OBJECT_NAME": "TIANMU-1 11",
    "OBJECT_ID": "2023-205A",
    "EPOCH": "2025-06-21T19:01:56.571168",
    "MEAN_MOTION": 15.22206384,
    "ECCENTRICITY": 0.000978,
    "INCLINATION": 97.3716,
    "RA_OF_ASC_NODE": 195.6313,
    "ARG_OF_PERICENTER": 183.4922,
    "MEAN_ANOMALY": 176.6248,
    "EPHEMERIS_TYPE": 0,
    "CLASSIFICATION_TYPE": "U",
    "NORAD_CAT_ID": 58645,
    "ELEMENT_SET_NO": 999,
    "REV_AT_EPOCH": 8261,
    "BSTAR": 0.00016611,
    "MEAN_MOTION_DOT": 3.75e-05,
    "MEAN_MOTION_DDOT": 0
  },
  {
    "OBJECT_NAME": "TIANMU-1 12",
    "OBJECT_ID": "2023-205B",
    "EPOCH": "2025-06-21T19:26:38.332896",
    "MEAN_MOTION": 15.22147211,
    "ECCENTRICITY": 0.0008282,
    "INCLINATION": 97.3703,
    "RA_OF_ASC_NODE": 195.5061,
    "ARG_OF_PERICENTER": 169.1954,
    "MEAN_ANOMALY": 190.9461,
    "EPHEMERIS_TYPE": 0,
    "CLASSIFICATION_TYPE": "U",
    "NORAD_CAT_ID": 58646,
    "ELEMENT_SET_NO": 999,
    "REV_AT_EPOCH": 8260,
    "BSTAR": 0.00018016,
    "MEAN_MOTION_DOT": 4.065e-05,
    "MEAN_MOTION_DDOT": 0
  },
  {
    "OBJECT_NAME": "TIANMU-1 13",
    "OBJECT_ID": "2023-205C",
    "EPOCH": "2025-06-21T20:14:04.956288",
    "MEAN_MOTION": 15.22121664,
    "ECCENTRICITY": 0.0008993,
    "INCLINATION": 97.3732,
    "RA_OF_ASC_NODE": 195.675,
    "ARG_OF_PERICENTER": 150.3153,
    "MEAN_ANOMALY": 209.8595,
    "EPHEMERIS_TYPE": 0,
    "CLASSIFICATION_TYPE": "U",
    "NORAD_CAT_ID": 58647,
    "ELEMENT_SET_NO": 999,
    "REV_AT_EPOCH": 8260,
    "BSTAR": 0.00016655,
    "MEAN_MOTION_DOT": 3.75e-05,
    "MEAN_MOTION_DDOT": 0
  },
  {
    "OBJECT_NAME": "TIANMU-1 14",
    "OBJECT_ID": "2023-205D",
    "EPOCH": "2025-06-21T19:49:45.922080",
    "MEAN_MOTION": 15.22141516,
    "ECCENTRICITY": 0.0009873,
    "INCLINATION": 97.3661,
    "RA_OF_ASC_NODE": 195.1684,
    "ARG_OF_PERICENTER": 156.0493,
    "MEAN_ANOMALY": 204.1204,
    "EPHEMERIS_TYPE": 0,
    "CLASSIFICATION_TYPE": "U",
    "NORAD_CAT_ID": 58648,
    "ELEMENT_SET_NO": 999,
    "REV_AT_EPOCH": 8260,
    "BSTAR": 0.00017382,
    "MEAN_MOTION_DOT": 3.92e-05,
    "MEAN_MOTION_DDOT": 0
  },
  {
    "OBJECT_NAME": "TIANMU-1 19",
    "OBJECT_ID": "2023-208A",
    "EPOCH": "2025-06-21T19:39:19.532448",
    "MEAN_MOTION": 15.24287574,
    "ECCENTRICITY": 0.0006859,
    "INCLINATION": 97.4288,
    "RA_OF_ASC_NODE": 284.8866,
    "ARG_OF_PERICENTER": 140.5481,
    "MEAN_ANOMALY": 219.6257,
    "EPHEMERIS_TYPE": 0,
    "CLASSIFICATION_TYPE": "U",
    "NORAD_CAT_ID": 58660,
    "ELEMENT_SET_NO": 999,
    "REV_AT_EPOCH": 8230,
    "BSTAR": 0.00020662,
    "MEAN_MOTION_DOT": 4.978e-05,
    "MEAN_MOTION_DDOT": 0
  },
  {
    "OBJECT_NAME": "TIANMU-1 20",
    "OBJECT_ID": "2023-208B",
    "EPOCH": "2025-06-21T19:27:45.521856",
    "MEAN_MOTION": 15.25488792,
    "ECCENTRICITY": 0.0009058,
    "INCLINATION": 97.4223,
    "RA_OF_ASC_NODE": 285.1557,
    "ARG_OF_PERICENTER": 152.302,
    "MEAN_ANOMALY": 207.8702,
    "EPHEMERIS_TYPE": 0,
    "CLASSIFICATION_TYPE": "U",
    "NORAD_CAT_ID": 58661,
    "ELEMENT_SET_NO": 999,
    "REV_AT_EPOCH": 8235,
    "BSTAR": 0.00020227,
    "MEAN_MOTION_DOT": 5.054e-05,
    "MEAN_MOTION_DDOT": 0
  },
  {
    "OBJECT_NAME": "TIANMU-1 21",
    "OBJECT_ID": "2023-208C",
    "EPOCH": "2025-06-21T19:05:43.720224",
    "MEAN_MOTION": 15.27436368,
    "ECCENTRICITY": 0.0008697,
    "INCLINATION": 97.4264,
    "RA_OF_ASC_NODE": 286.3676,
    "ARG_OF_PERICENTER": 149.8412,
    "MEAN_ANOMALY": 210.3329,
    "EPHEMERIS_TYPE": 0,
    "CLASSIFICATION_TYPE": "U",
    "NORAD_CAT_ID": 58662,
    "ELEMENT_SET_NO": 999,
    "REV_AT_EPOCH": 8241,
    "BSTAR": 0.00022895,
    "MEAN_MOTION_DOT": 6.079e-05,
    "MEAN_MOTION_DDOT": 0
  },
  {
    "OBJECT_NAME": "TIANMU-1 22",
    "OBJECT_ID": "2023-208D",
    "EPOCH": "2025-06-21T19:20:19.307328",
    "MEAN_MOTION": 15.24263407,
    "ECCENTRICITY": 0.0004916,
    "INCLINATION": 97.4282,
    "RA_OF_ASC_NODE": 284.9751,
    "ARG_OF_PERICENTER": 156.4881,
    "MEAN_ANOMALY": 203.6582,
    "EPHEMERIS_TYPE": 0,
    "CLASSIFICATION_TYPE": "U",
    "NORAD_CAT_ID": 58663,
    "ELEMENT_SET_NO": 999,
    "REV_AT_EPOCH": 8231,
    "BSTAR": 0.00019725,
    "MEAN_MOTION_DOT": 4.744e-05,
    "MEAN_MOTION_DDOT": 0
  },
  {
    "OBJECT_NAME": "TIANMU-1 15",
    "OBJECT_ID": "2024-004A",
    "EPOCH": "2025-06-21T19:47:32.547264",
    "MEAN_MOTION": 15.22034193,
    "ECCENTRICITY": 0.0007036,
    "INCLINATION": 97.4654,
    "RA_OF_ASC_NODE": 355.2708,
    "ARG_OF_PERICENTER": 168.2329,
    "MEAN_ANOMALY": 191.9073,
    "EPHEMERIS_TYPE": 0,
    "CLASSIFICATION_TYPE": "U",
    "NORAD_CAT_ID": 58700,
    "ELEMENT_SET_NO": 999,
    "REV_AT_EPOCH": 8087,
    "BSTAR": 0.00017182,
    "MEAN_MOTION_DOT": 3.858e-05,
    "MEAN_MOTION_DDOT": 0
  },
  {
    "OBJECT_NAME": "TIANMU-1 16",
    "OBJECT_ID": "2024-004B",
    "EPOCH": "2025-06-21T19:24:47.341728",
    "MEAN_MOTION": 15.22073682,
    "ECCENTRICITY": 0.0007226,
    "INCLINATION": 97.4588,
    "RA_OF_ASC_NODE": 354.7917,
    "ARG_OF_PERICENTER": 173.9286,
    "MEAN_ANOMALY": 186.2039,
    "EPHEMERIS_TYPE": 0,
    "CLASSIFICATION_TYPE": "U",
    "NORAD_CAT_ID": 58701,
    "ELEMENT_SET_NO": 999,
    "REV_AT_EPOCH": 8087,
    "BSTAR": 0.00017542,
    "MEAN_MOTION_DOT": 3.945e-05,
    "MEAN_MOTION_DDOT": 0
  },
  {
    "OBJECT_NAME": "TIANMU-1 17",
    "OBJECT_ID": "2024-004C",
    "EPOCH": "2025-06-21T19:03:28.381536",
    "MEAN_MOTION": 15.22234774,
    "ECCENTRICITY": 0.0005872,
    "INCLINATION": 97.4626,
    "RA_OF_ASC_NODE": 355.1035,
    "ARG_OF_PERICENTER": 171.8887,
    "MEAN_ANOMALY": 188.2445,
    "EPHEMERIS_TYPE": 0,
    "CLASSIFICATION_TYPE": "U",
    "NORAD_CAT_ID": 58702,
    "ELEMENT_SET_NO": 999,
    "REV_AT_EPOCH": 8086,
    "BSTAR": 0.00018083,
    "MEAN_MOTION_DOT": 4.088e-05,
    "MEAN_MOTION_DDOT": 0
  },
  {
    "OBJECT_NAME": "TIANMU-1 18",
    "OBJECT_ID": "2024-004D",
    "EPOCH": "2025-06-21T20:13:31.790784",
    "MEAN_MOTION": 15.22140173,
    "ECCENTRICITY": 0.0006016,
    "INCLINATION": 97.4643,
    "RA_OF_ASC_NODE": 355.3071,
    "ARG_OF_PERICENTER": 160.4756,
    "MEAN_ANOMALY": 199.6711,
    "EPHEMERIS_TYPE": 0,
    "CLASSIFICATION_TYPE": "U",
    "NORAD_CAT_ID": 58703,
    "ELEMENT_SET_NO": 999,
    "REV_AT_EPOCH": 8087,
    "BSTAR": 0.00017703,
    "MEAN_MOTION_DOT": 3.989e-05,
    "MEAN_MOTION_DDOT": 0
  },
  {
    "OBJECT_NAME": "INSAT-3DS",
    "OBJECT_ID": "2024-033A",
    "EPOCH": "2025-06-21T19:30:38.860992",
    "MEAN_MOTION": 1.00271006,
    "ECCENTRICITY": 0.0001008,
    "INCLINATION": 0.0511,
    "RA_OF_ASC_NODE": 98.9779,
    "ARG_OF_PERICENTER": 353.7817,
    "MEAN_ANOMALY": 192.2211,
    "EPHEMERIS_TYPE": 0,
    "CLASSIFICATION_TYPE": "U",
    "NORAD_CAT_ID": 58990,
    "ELEMENT_SET_NO": 999,
    "REV_AT_EPOCH": 520,
    "BSTAR": 0,
    "MEAN_MOTION_DOT": -1.46e-06,
    "MEAN_MOTION_DDOT": 0
  }
]